{
  "norad_id": 48621,
  "name": "HAIYANG-2D",
  "history": [
    {
      "epoch": "2026-04-10T13:15:16.361280Z",
      "apogee_km": 960.2164524070931,
      "perigee_km": 943.6753872901636,
      "latitude_deg": 5.1539385230905466e-05,
      "longitude_deg": 75.4862748117223,
      "height_km": 953.0856038210059,
      "semi_major_axis_km": 7330.082919848628,
      "eccentricity": 0.0011283,
      "inclination_deg": 65.9965,
      "raan_deg": 113.0889,
      "arg_perigee_deg": 276.0593,
      "mean_anomaly_deg": 83.919,
      "mean_motion_rev_day": 13.83373432
    },
    {
      "epoch": "2026-04-11T20:29:09.211776Z",
      "apogee_km": 960.2303274788201,
      "perigee_km": 943.6599438029907,
      "latitude_deg": -3.81582271334952e-05,
      "longitude_deg": -37.50660357890084,
      "height_km": 953.06805249396,
      "semi_major_axis_km": 7330.082135640905,
      "eccentricity": 0.0011303,
      "inclination_deg": 65.9967,
      "raan_deg": 109.8489,
      "arg_perigee_deg": 276.1652,
      "mean_anomaly_deg": 83.8128,
      "mean_motion_rev_day": 13.83373654
    },
    {
      "epoch": "2026-04-13T07:11:14.602848Z",
      "apogee_km": 960.2469394385253,
      "perigee_km": 943.6434236874229,
      "latitude_deg": 5.5523121889080464e-05,
      "longitude_deg": 156.9459346953377,
      "height_km": 953.0932311036632,
      "semi_major_axis_km": 7330.082181562973,
      "eccentricity": 0.00113256,
      "inclination_deg": 65.9967,
      "raan_deg": 106.249,
      "arg_perigee_deg": 275.9784,
      "mean_anomaly_deg": 83.9994,
      "mean_motion_rev_day": 13.83373641
    },
    {
      "epoch": "2026-04-14T21:21:32.457600Z",
      "apogee_km": 960.258299750044,
      "perigee_km": 943.6248854077639,
      "latitude_deg": -7.869818720841321e-06,
      "longitude_deg": -61.1561394197441,
      "height_km": 953.0870954811327,
      "semi_major_axis_km": 7330.078592578903,
      "eccentricity": 0.0011346,
      "inclination_deg": 65.9965,
      "raan_deg": 102.289,
      "arg_perigee_deg": 275.9851,
      "mean_anomaly_deg": 83.9924,
      "mean_motion_rev_day": 13.83374657
    },
    {
      "epoch": "2026-04-15T19:54:53.904384Z",
      "apogee_km": 960.250747174874,
      "perigee_km": 943.6261360732715,
      "latitude_deg": -5.9901572930113895e-05,
      "longitude_deg": -42.76226249767592,
      "height_km": 953.0915753106766,
      "semi_major_axis_km": 7330.0754416240725,
      "eccentricity": 0.001134,
      "inclination_deg": 65.9963,
      "raan_deg": 99.9486,
      "arg_perigee_deg": 275.9353,
      "mean_anomaly_deg": 84.0422,
      "mean_motion_rev_day": 13.83375549
    },
    {
      "epoch": "2026-04-16T21:56:27.888288Z",
      "apogee_km": 960.2632330584192,
      "perigee_km": 943.6136996441492,
      "latitude_deg": 2.1692930145585484e-05,
      "longitude_deg": -76.92297810281183,
      "height_km": 953.0870479842537,
      "semi_major_axis_km": 7330.0754663512835,
      "eccentricity": 0.0011357,
      "inclination_deg": 65.996,
      "raan_deg": 97.2483,
      "arg_perigee_deg": 275.9577,
      "mean_anomaly_deg": 84.0197,
      "mean_motion_rev_day": 13.83375542
    },
    {
      "epoch": "2026-04-17T23:58:01.905024Z",
      "apogee_km": 960.2660863357223,
      "perigee_km": 943.6137641784617,
      "latitude_deg": 7.152717660820872e-05,
      "longitude_deg": -111.08384570286546,
      "height_km": 953.1086879121037,
      "semi_major_axis_km": 7330.076925257092,
      "eccentricity": 0.00113589,
      "inclination_deg": 65.996,
      "raan_deg": 94.548,
      "arg_perigee_deg": 275.8171,
      "mean_anomaly_deg": 84.1603,
      "mean_motion_rev_day": 13.83375129
    },
    {
      "epoch": "2026-04-18T20:47:17.068992Z",
      "apogee_km": 960.271509287235,
      "perigee_km": 943.604384872564,
      "latitude_deg": 7.792572157807655e-06,
      "longitude_deg": -66.41234025390015,
      "height_km": 953.1159052641576,
      "semi_major_axis_km": 7330.074947079899,
      "eccentricity": 0.0011369,
      "inclination_deg": 65.9961,
      "raan_deg": 92.3878,
      "arg_perigee_deg": 275.7484,
      "mean_anomaly_deg": 84.2288,
      "mean_motion_rev_day": 13.83375689
    },
    {
      "epoch": "2026-04-19T21:04:44.778720Z",
      "apogee_km": 960.2812515297819,
      "perigee_km": 943.5936040874321,
      "latitude_deg": -3.3869599797638305e-05,
      "longitude_deg": -74.29561418885707,
      "height_km": 953.1114427264782,
      "semi_major_axis_km": 7330.074427808607,
      "eccentricity": 0.0011383,
      "inclination_deg": 65.9965,
      "raan_deg": 89.8676,
      "arg_perigee_deg": 275.7687,
      "mean_anomaly_deg": 84.2083,
      "mean_motion_rev_day": 13.83375836
    },
    {
      "epoch": "2026-04-20T12:41:41.242848Z",
      "apogee_km": 960.2843488841563,
      "perigee_km": 943.6035768402098,
      "latitude_deg": -3.367751331228191e-05,
      "longitude_deg": 49.207804000154354,
      "height_km": 953.1534917719647,
      "semi_major_axis_km": 7330.080962862183,
      "eccentricity": 0.00113783,
      "inclination_deg": 65.9968,
      "raan_deg": 88.2476,
      "arg_perigee_deg": 275.5261,
      "mean_anomaly_deg": 84.4509,
      "mean_motion_rev_day": 13.83373986
    },
    {
      "epoch": "2026-04-21T21:39:40.250880Z",
      "apogee_km": 960.2941007145419,
      "perigee_km": 943.5829944811276,
      "latitude_deg": -7.467785173893575e-06,
      "longitude_deg": -90.06153616962342,
      "height_km": 953.1419332649735,
      "semi_major_axis_km": 7330.075547597834,
      "eccentricity": 0.0011399,
      "inclination_deg": 65.9973,
      "raan_deg": 84.828,
      "arg_perigee_deg": 275.5586,
      "mean_anomaly_deg": 84.4182,
      "mean_motion_rev_day": 13.83375519
    },
    {
      "epoch": "2026-04-22T21:57:07.953696Z",
      "apogee_km": 960.2874100730769,
      "perigee_km": 943.5865694947543,
      "latitude_deg": 2.2403753079214415e-05,
      "longitude_deg": -97.9442509104252,
      "height_km": 953.1493650379686,
      "semi_major_axis_km": 7330.073989783916,
      "eccentricity": 0.0011392,
      "inclination_deg": 65.9977,
      "raan_deg": 82.3083,
      "arg_perigee_deg": 275.5003,
      "mean_anomaly_deg": 84.4766,
      "mean_motion_rev_day": 13.8337596
    },
    {
      "epoch": "2026-04-23T15:18:10.666080Z",
      "apogee_km": 960.2905694530937,
      "perigee_km": 943.5920646405966,
      "latitude_deg": 5.145135692953979e-05,
      "longitude_deg": -0.7177111076970046,
      "height_km": 953.1880542356812,
      "semi_major_axis_km": 7330.078317046845,
      "eccentricity": 0.00113904,
      "inclination_deg": 65.998,
      "raan_deg": 80.5087,
      "arg_perigee_deg": 275.2644,
      "mean_anomaly_deg": 84.7125,
      "mean_motion_rev_day": 13.83374735
    },
    {
      "epoch": "2026-04-24T20:47:57.128352Z",
      "apogee_km": 960.2910458627784,
      "perigee_km": 943.5843396230794,
      "latitude_deg": 1.553202052844123e-05,
      "longitude_deg": -87.43248875661143,
      "height_km": 953.1820193648583,
      "semi_major_axis_km": 7330.074692742929,
      "eccentricity": 0.0011396,
      "inclination_deg": 65.998,
      "raan_deg": 77.4489,
      "arg_perigee_deg": 275.2784,
      "mean_anomaly_deg": 84.6984,
      "mean_motion_rev_day": 13.83375761
    }
  ]
}